CCSDS_OMM_VERS = 2.0
CREATION_DATE  = 
ORIGINATOR     = 

OBJECT_NAME    = STARLINK-36633
OBJECT_ID      = 2026-020R
CENTER_NAME    = EARTH
REF_FRAME      = TEME
TIME_SYSTEM    = UTC
MEAN_ELEMENT_THEORY = SGP/SGP4

EPOCH          = 2026-02-07T06:00:02.999808
MEAN_MOTION    = 15.89737392
ECCENTRICITY   = .00016538
INCLINATION    = 42.9999
RA_OF_ASC_NODE = 327.3629
ARG_OF_PERICENTER = 265.6504
MEAN_ANOMALY   = 315.5431

EPHEMERIS_TYPE = 0
CLASSIFICATION_TYPE = U
NORAD_CAT_ID   = 67632
ELEMENT_SET_NO = 999
REV_AT_EPOCH   = 249
BSTAR          = -.60182592E-2
MEAN_MOTION_DOT = -.1619733E-1
MEAN_MOTION_DDOT = 0

CCSDS_OMM_VERS = 2.0
CREATION_DATE  = 
ORIGINATOR     = 

OBJECT_NAME    = STARLINK-36637
OBJECT_ID      = 2026-020S
CENTER_NAME    = EARTH
REF_FRAME      = TEME
TIME_SYSTEM    = UTC
MEAN_ELEMENT_THEORY = SGP/SGP4

EPOCH          = 2026-02-07T06:00:02.999808
MEAN_MOTION    = 15.89870608
ECCENTRICITY   = .00016131
INCLINATION    = 42.9999
RA_OF_ASC_NODE = 327.3572
ARG_OF_PERICENTER = 263.5211
MEAN_ANOMALY   = 320.0305

EPHEMERIS_TYPE = 0
CLASSIFICATION_TYPE = U
NORAD_CAT_ID   = 67633
ELEMENT_SET_NO = 999
REV_AT_EPOCH   = 249
BSTAR          = -.59646999E-2
MEAN_MOTION_DOT = -.1616758E-1
MEAN_MOTION_DDOT = 0

CCSDS_OMM_VERS = 2.0
CREATION_DATE  = 
ORIGINATOR     = 

OBJECT_NAME    = STARLINK-36617
OBJECT_ID      = 2026-020T
CENTER_NAME    = EARTH
REF_FRAME      = TEME
TIME_SYSTEM    = UTC
MEAN_ELEMENT_THEORY = SGP/SGP4

EPOCH          = 2026-02-07T06:00:02.999808
MEAN_MOTION    = 15.90023223
ECCENTRICITY   = .00016507
INCLINATION    = 43.0001
RA_OF_ASC_NODE = 327.3499
ARG_OF_PERICENTER = 267.7010
MEAN_ANOMALY   = 318.5822

EPHEMERIS_TYPE = 0
CLASSIFICATION_TYPE = U
NORAD_CAT_ID   = 67634
ELEMENT_SET_NO = 999
REV_AT_EPOCH   = 249
BSTAR          = -.59170041E-2
MEAN_MOTION_DOT = -.1616578E-1
MEAN_MOTION_DDOT = 0

CCSDS_OMM_VERS = 2.0
CREATION_DATE  = 
ORIGINATOR     = 

OBJECT_NAME    = STARLINK-36627
OBJECT_ID      = 2026-020U
CENTER_NAME    = EARTH
REF_FRAME      = TEME
TIME_SYSTEM    = UTC
MEAN_ELEMENT_THEORY = SGP/SGP4

EPOCH          = 2026-02-07T06:00:02.999808
MEAN_MOTION    = 15.90529451
ECCENTRICITY   = .0001615
INCLINATION    = 42.9999
RA_OF_ASC_NODE = 327.3256
ARG_OF_PERICENTER = 264.5171
MEAN_ANOMALY   = 331.3642

EPHEMERIS_TYPE = 0
CLASSIFICATION_TYPE = U
NORAD_CAT_ID   = 67635
ELEMENT_SET_NO = 999
REV_AT_EPOCH   = 249
BSTAR          = -.56895211E-2
MEAN_MOTION_DOT = -.1598263E-1
MEAN_MOTION_DDOT = 0

CCSDS_OMM_VERS = 2.0
CREATION_DATE  = 
ORIGINATOR     = 

OBJECT_NAME    = STARLINK-36624
OBJECT_ID      = 2026-020V
CENTER_NAME    = EARTH
REF_FRAME      = TEME
TIME_SYSTEM    = UTC
MEAN_ELEMENT_THEORY = SGP/SGP4

EPOCH          = 2026-02-07T06:00:02.999808
MEAN_MOTION    = 15.90412850
ECCENTRICITY   = .00015515
INCLINATION    = 43.0002
RA_OF_ASC_NODE = 327.3316
ARG_OF_PERICENTER = 267.5941
MEAN_ANOMALY   = 326.0985

EPHEMERIS_TYPE = 0
CLASSIFICATION_TYPE = U
NORAD_CAT_ID   = 67636
ELEMENT_SET_NO = 999
REV_AT_EPOCH   = 249
BSTAR          = -.57690597E-2
MEAN_MOTION_DOT = -.1609211E-1
MEAN_MOTION_DDOT = 0

CCSDS_OMM_VERS = 2.0
CREATION_DATE  = 
ORIGINATOR     = 

OBJECT_NAME    = STARLINK-36610
OBJECT_ID      = 2026-020W
CENTER_NAME    = EARTH
REF_FRAME      = TEME
TIME_SYSTEM    = UTC
MEAN_ELEMENT_THEORY = SGP/SGP4

EPOCH          = 2026-02-07T06:00:02.999808
MEAN_MOTION    = 15.90737115
ECCENTRICITY   = .0001686
INCLINATION    = 43.0001
RA_OF_ASC_NODE = 327.3175
ARG_OF_PERICENTER = 269.0416
MEAN_ANOMALY   = 330.1439

EPHEMERIS_TYPE = 0
CLASSIFICATION_TYPE = U
NORAD_CAT_ID   = 67637
ELEMENT_SET_NO = 999
REV_AT_EPOCH   = 249
BSTAR          = -.56499708E-2
MEAN_MOTION_DOT = -.16037E-1
MEAN_MOTION_DDOT = 0

CCSDS_OMM_VERS = 2.0
CREATION_DATE  = 
ORIGINATOR     = 

OBJECT_NAME    = STARLINK-36599
OBJECT_ID      = 2026-020X
CENTER_NAME    = EARTH
REF_FRAME      = TEME
TIME_SYSTEM    = UTC
MEAN_ELEMENT_THEORY = SGP/SGP4

EPOCH          = 2026-02-07T06:00:02.999808
MEAN_MOTION    = 15.90917959
ECCENTRICITY   = .00016318
INCLINATION    = 42.9999
RA_OF_ASC_NODE = 327.3097
ARG_OF_PERICENTER = 263.4413
MEAN_ANOMALY   = 338.8233

EPHEMERIS_TYPE = 0
CLASSIFICATION_TYPE = U
NORAD_CAT_ID   = 67638
ELEMENT_SET_NO = 999
REV_AT_EPOCH   = 249
BSTAR          = -.55607211E-2
MEAN_MOTION_DOT = -.1594535E-1
MEAN_MOTION_DDOT = 0

CCSDS_OMM_VERS = 2.0
CREATION_DATE  = 
ORIGINATOR     = 

OBJECT_NAME    = STARLINK-36595
OBJECT_ID      = 2026-020Y
CENTER_NAME    = EARTH
REF_FRAME      = TEME
TIME_SYSTEM    = UTC
MEAN_ELEMENT_THEORY = SGP/SGP4

EPOCH          = 2026-02-07T06:00:02.999808
MEAN_MOTION    = 15.91093384
ECCENTRICITY   = .00016635
INCLINATION    = 43.0000
RA_OF_ASC_NODE = 327.3022
ARG_OF_PERICENTER = 266.7972
MEAN_ANOMALY   = 338.3706

EPHEMERIS_TYPE = 0
CLASSIFICATION_TYPE = U
NORAD_CAT_ID   = 67639
ELEMENT_SET_NO = 999
REV_AT_EPOCH   = 249
BSTAR          = -.55026382E-2
MEAN_MOTION_DOT = -.1592691E-1
MEAN_MOTION_DDOT = 0

CCSDS_OMM_VERS = 2.0
CREATION_DATE  = 
ORIGINATOR     = 

OBJECT_NAME    = STARLINK-36570
OBJECT_ID      = 2026-020Z
CENTER_NAME    = EARTH
REF_FRAME      = TEME
TIME_SYSTEM    = UTC
MEAN_ELEMENT_THEORY = SGP/SGP4

EPOCH          = 2026-02-07T06:00:02.999808
MEAN_MOTION    = 15.91217687
ECCENTRICITY   = .00016979
INCLINATION    = 42.9999
RA_OF_ASC_NODE = 327.2965
ARG_OF_PERICENTER = 266.7161
MEAN_ANOMALY   = 340.6475

EPHEMERIS_TYPE = 0
CLASSIFICATION_TYPE = U
NORAD_CAT_ID   = 67640
ELEMENT_SET_NO = 999
REV_AT_EPOCH   = 249
BSTAR          = -.54794675E-2
MEAN_MOTION_DOT = -.1800092E-1
MEAN_MOTION_DDOT = .88128566E-3

CCSDS_OMM_VERS = 2.0
CREATION_DATE  = 
ORIGINATOR     = 

OBJECT_NAME    = STARLINK-36514
OBJECT_ID      = 2026-020AA
CENTER_NAME    = EARTH
REF_FRAME      = TEME
TIME_SYSTEM    = UTC
MEAN_ELEMENT_THEORY = SGP/SGP4

EPOCH          = 2026-02-07T06:00:02.999808
MEAN_MOTION    = 15.91582920
ECCENTRICITY   = .00017352
INCLINATION    = 42.9998
RA_OF_ASC_NODE = 327.2810
ARG_OF_PERICENTER = 267.2524
MEAN_ANOMALY   = 346.2701

EPHEMERIS_TYPE = 0
CLASSIFICATION_TYPE = U
NORAD_CAT_ID   = 67641
ELEMENT_SET_NO = 999
REV_AT_EPOCH   = 249
BSTAR          = -.52959509E-2
MEAN_MOTION_DOT = -.1773308E-1
MEAN_MOTION_DDOT = .86021997E-3

CCSDS_OMM_VERS = 2.0
CREATION_DATE  = 
ORIGINATOR     = 

OBJECT_NAME    = STARLINK-36556
OBJECT_ID      = 2026-020AB
CENTER_NAME    = EARTH
REF_FRAME      = TEME
TIME_SYSTEM    = UTC
MEAN_ELEMENT_THEORY = SGP/SGP4

EPOCH          = 2026-02-07T06:00:02.999808
MEAN_MOTION    = 15.91720342
ECCENTRICITY   = .00017529
INCLINATION    = 42.9998
RA_OF_ASC_NODE = 327.2748
ARG_OF_PERICENTER = 266.3435
MEAN_ANOMALY   = 349.5048

EPHEMERIS_TYPE = 0
CLASSIFICATION_TYPE = U
NORAD_CAT_ID   = 67642
ELEMENT_SET_NO = 999
REV_AT_EPOCH   = 249
BSTAR          = -.52868456E-2
MEAN_MOTION_DOT = -.1782792E-1
MEAN_MOTION_DDOT = .8699156E-3

CCSDS_OMM_VERS = 2.0
CREATION_DATE  = 
ORIGINATOR     = 

OBJECT_NAME    = STARLINK-36533
OBJECT_ID      = 2026-020AC
CENTER_NAME    = EARTH
REF_FRAME      = TEME
TIME_SYSTEM    = UTC
MEAN_ELEMENT_THEORY = SGP/SGP4

EPOCH          = 2026-02-07T06:00:02.999808
MEAN_MOTION    = 15.91390255
ECCENTRICITY   = .00016641
INCLINATION    = 42.9998
RA_OF_ASC_NODE = 327.2888
ARG_OF_PERICENTER = 266.7673
MEAN_ANOMALY   = 343.5718

EPHEMERIS_TYPE = 0
CLASSIFICATION_TYPE = U
NORAD_CAT_ID   = 67643
ELEMENT_SET_NO = 999
REV_AT_EPOCH   = 249
BSTAR          = -.53722156E-2
MEAN_MOTION_DOT = -.1780888E-1
MEAN_MOTION_DDOT = .86541285E-3

