STARLINK-36633          
1 67632U 26020R   26038.25003472 -.01619733  00000+0 -60183-2 0  9997
2 67632  42.9999 327.3629 0001653 265.6504 315.5431 15.89737392  2494
STARLINK-36637          
1 67633U 26020S   26038.25003472 -.01616758  00000+0 -59647-2 0  9995
2 67633  42.9999 327.3572 0001613 263.5211 320.0305 15.89870608  2499
STARLINK-36617          
1 67634U 26020T   26038.25003472 -.01616578  00000+0 -59170-2 0  9997
2 67634  43.0001 327.3499 0001650 267.7010 318.5822 15.90023223  2499
STARLINK-36627          
1 67635U 26020U   26038.25003472 -.01598263  00000+0 -56895-2 0  9999
2 67635  42.9999 327.3256 0001615 264.5171 331.3642 15.90529451  2496
STARLINK-36624          
1 67636U 26020V   26038.25003472 -.01609211  00000+0 -57691-2 0  9991
2 67636  43.0002 327.3316 0001551 267.5941 326.0985 15.90412850  2493
STARLINK-36610          
1 67637U 26020W   26038.25003472 -.01603700  00000+0 -56500-2 0  9997
2 67637  43.0001 327.3175 0001686 269.0416 330.1439 15.90737115  2493
STARLINK-36599          
1 67638U 26020X   26038.25003472 -.01594535  00000+0 -55607-2 0  9990
2 67638  42.9999 327.3097 0001631 263.4413 338.8233 15.90917959  2499
STARLINK-36595          
1 67639U 26020Y   26038.25003472 -.01592691  00000+0 -55026-2 0  9997
2 67639  43.0000 327.3022 0001663 266.7972 338.3706 15.91093384  2492
STARLINK-36570          
1 67640U 26020Z   26038.25003472 -.01800092  88129-3 -54795-2 0  9990
2 67640  42.9999 327.2965 0001697 266.7161 340.6475 15.91217687  2494
STARLINK-36514          
1 67641U 26020AA  26038.25003472 -.01773308  86022-3 -52960-2 0  9992
2 67641  42.9998 327.2810 0001735 267.2524 346.2701 15.91582920  2494
STARLINK-36556          
1 67642U 26020AB  26038.25003472 -.01782792  86992-3 -52868-2 0  9993
2 67642  42.9998 327.2748 0001752 266.3435 349.5048 15.91720342  2497
STARLINK-36533          
1 67643U 26020AC  26038.25003472 -.01780888  86541-3 -53722-2 0  9998
2 67643  42.9998 327.2888 0001664 266.7673 343.5718 15.91390255  2497
